CCSDS_OMM_VERS = 2.0
CREATION_DATE  = 
ORIGINATOR     = 

OBJECT_NAME    = PROGRESS-MS 32
OBJECT_ID      = 2025-204A
CENTER_NAME    = EARTH
REF_FRAME      = TEME
TIME_SYSTEM    = UTC
MEAN_ELEMENT_THEORY = SGP/SGP4

EPOCH          = 2025-11-12T22:26:21.947136
MEAN_MOTION    = 15.49593679
ECCENTRICITY   = .00041155
INCLINATION    = 51.6332
RA_OF_ASC_NODE = 290.0154
ARG_OF_PERICENTER = 64.1640
MEAN_ANOMALY   = 295.9773

EPHEMERIS_TYPE = 0
CLASSIFICATION_TYPE = U
NORAD_CAT_ID   = 65586
ELEMENT_SET_NO = 999
REV_AT_EPOCH   = 27
BSTAR          = .34559918E-3
MEAN_MOTION_DOT = .19039E-3
MEAN_MOTION_DDOT = 0

CCSDS_OMM_VERS = 2.0
CREATION_DATE  = 
ORIGINATOR     = 

OBJECT_NAME    = CYGNUS NG-23
OBJECT_ID      = 2025-208A
CENTER_NAME    = EARTH
REF_FRAME      = TEME
TIME_SYSTEM    = UTC
MEAN_ELEMENT_THEORY = SGP/SGP4

EPOCH          = 2025-11-12T22:26:21.947136
MEAN_MOTION    = 15.49593679
ECCENTRICITY   = .00041155
INCLINATION    = 51.6332
RA_OF_ASC_NODE = 290.0154
ARG_OF_PERICENTER = 64.1640
MEAN_ANOMALY   = 295.9773

EPHEMERIS_TYPE = 0
CLASSIFICATION_TYPE = U
NORAD_CAT_ID   = 65616
ELEMENT_SET_NO = 999
REV_AT_EPOCH   = 22
BSTAR          = .34559918E-3
MEAN_MOTION_DOT = .19039E-3
MEAN_MOTION_DDOT = 0

CCSDS_OMM_VERS = 2.0
CREATION_DATE  = 
ORIGINATOR     = 

OBJECT_NAME    = DRAGONFLY
OBJECT_ID      = 1998-067XH
CENTER_NAME    = EARTH
REF_FRAME      = TEME
TIME_SYSTEM    = UTC
MEAN_ELEMENT_THEORY = SGP/SGP4

EPOCH          = 2025-11-12T22:54:04.588992
MEAN_MOTION    = 15.62564101
ECCENTRICITY   = .00046491
INCLINATION    = 51.6292
RA_OF_ASC_NODE = 287.1471
ARG_OF_PERICENTER = 116.8773
MEAN_ANOMALY   = 243.2697

EPHEMERIS_TYPE = 0
CLASSIFICATION_TYPE = U
NORAD_CAT_ID   = 65729
ELEMENT_SET_NO = 999
REV_AT_EPOCH   = 849
BSTAR          = .17237868E-2
MEAN_MOTION_DOT = .159523E-2
MEAN_MOTION_DDOT = 0

CCSDS_OMM_VERS = 2.0
CREATION_DATE  = 
ORIGINATOR     = 

OBJECT_NAME    = 1998-067XJ
OBJECT_ID      = 1998-067XJ
CENTER_NAME    = EARTH
REF_FRAME      = TEME
TIME_SYSTEM    = UTC
MEAN_ELEMENT_THEORY = SGP/SGP4

EPOCH          = 2025-11-12T08:10:53.087808
MEAN_MOTION    = 15.75425830
ECCENTRICITY   = .00113436
INCLINATION    = 51.6254
RA_OF_ASC_NODE = 288.2854
ARG_OF_PERICENTER = 102.4924
MEAN_ANOMALY   = 257.7345

EPHEMERIS_TYPE = 0
CLASSIFICATION_TYPE = U
NORAD_CAT_ID   = 65730
ELEMENT_SET_NO = 999
REV_AT_EPOCH   = 842
BSTAR          = .45427245E-2
MEAN_MOTION_DOT = .771762E-2
MEAN_MOTION_DDOT = 0

CCSDS_OMM_VERS = 2.0
CREATION_DATE  = 
ORIGINATOR     = 

OBJECT_NAME    = 1998-067XK
OBJECT_ID      = 1998-067XK
CENTER_NAME    = EARTH
REF_FRAME      = TEME
TIME_SYSTEM    = UTC
MEAN_ELEMENT_THEORY = SGP/SGP4

EPOCH          = 2025-11-12T08:31:30.879264
MEAN_MOTION    = 15.59527862
ECCENTRICITY   = .00056654
INCLINATION    = 51.6319
RA_OF_ASC_NODE = 290.6486
ARG_OF_PERICENTER = 91.2035
MEAN_ANOMALY   = 268.9607

EPHEMERIS_TYPE = 0
CLASSIFICATION_TYPE = U
NORAD_CAT_ID   = 65731
ELEMENT_SET_NO = 999
REV_AT_EPOCH   = 839
BSTAR          = .19433222E-2
MEAN_MOTION_DOT = .16006E-2
MEAN_MOTION_DDOT = 0

CCSDS_OMM_VERS = 2.0
CREATION_DATE  = 
ORIGINATOR     = 

OBJECT_NAME    = RSP-03
OBJECT_ID      = 1998-067XL
CENTER_NAME    = EARTH
REF_FRAME      = TEME
TIME_SYSTEM    = UTC
MEAN_ELEMENT_THEORY = SGP/SGP4

EPOCH          = 2025-11-12T21:52:42.622752
MEAN_MOTION    = 15.61081421
ECCENTRICITY   = .00063209
INCLINATION    = 51.6303
RA_OF_ASC_NODE = 287.6135
ARG_OF_PERICENTER = 94.3835
MEAN_ANOMALY   = 265.7881

EPHEMERIS_TYPE = 0
CLASSIFICATION_TYPE = U
NORAD_CAT_ID   = 65732
ELEMENT_SET_NO = 999
REV_AT_EPOCH   = 849
BSTAR          = .15661778E-2
MEAN_MOTION_DOT = .136439E-2
MEAN_MOTION_DDOT = 0

CCSDS_OMM_VERS = 2.0
CREATION_DATE  = 
ORIGINATOR     = 

OBJECT_NAME    = GHS-01
OBJECT_ID      = 1998-067XM
CENTER_NAME    = EARTH
REF_FRAME      = TEME
TIME_SYSTEM    = UTC
MEAN_ELEMENT_THEORY = SGP/SGP4

EPOCH          = 2025-11-12T22:33:17.900928
MEAN_MOTION    = 15.63607824
ECCENTRICITY   = .00052462
INCLINATION    = 51.6306
RA_OF_ASC_NODE = 287.0530
ARG_OF_PERICENTER = 114.8359
MEAN_ANOMALY   = 245.3181

EPHEMERIS_TYPE = 0
CLASSIFICATION_TYPE = U
NORAD_CAT_ID   = 65733
ELEMENT_SET_NO = 999
REV_AT_EPOCH   = 850
BSTAR          = .19157795E-2
MEAN_MOTION_DOT = .185374E-2
MEAN_MOTION_DDOT = 0

CCSDS_OMM_VERS = 2.0
CREATION_DATE  = 
ORIGINATOR     = 

OBJECT_NAME    = YOTSUBA-KULOVER
OBJECT_ID      = 1998-067XN
CENTER_NAME    = EARTH
REF_FRAME      = TEME
TIME_SYSTEM    = UTC
MEAN_ELEMENT_THEORY = SGP/SGP4

EPOCH          = 2025-11-12T22:24:41.905440
MEAN_MOTION    = 15.54889681
ECCENTRICITY   = .00026314
INCLINATION    = 51.6317
RA_OF_ASC_NODE = 289.2597
ARG_OF_PERICENTER = 50.7638
MEAN_ANOMALY   = 309.3586

EPHEMERIS_TYPE = 0
CLASSIFICATION_TYPE = U
NORAD_CAT_ID   = 65941
ELEMENT_SET_NO = 999
REV_AT_EPOCH   = 521
BSTAR          = .12827946E-2
MEAN_MOTION_DOT = .87807E-3
MEAN_MOTION_DDOT = 0

CCSDS_OMM_VERS = 2.0
CREATION_DATE  = 
ORIGINATOR     = 

OBJECT_NAME    = BOTAN
OBJECT_ID      = 1998-067XP
CENTER_NAME    = EARTH
REF_FRAME      = TEME
TIME_SYSTEM    = UTC
MEAN_ELEMENT_THEORY = SGP/SGP4

EPOCH          = 2025-11-12T08:12:17.549856
MEAN_MOTION    = 15.56096331
ECCENTRICITY   = .00047891
INCLINATION    = 51.6317
RA_OF_ASC_NODE = 292.0571
ARG_OF_PERICENTER = 62.0522
MEAN_ANOMALY   = 298.0954

EPHEMERIS_TYPE = 0
CLASSIFICATION_TYPE = U
NORAD_CAT_ID   = 65942
ELEMENT_SET_NO = 999
REV_AT_EPOCH   = 512
BSTAR          = .24082263E-2
MEAN_MOTION_DOT = .174749E-2
MEAN_MOTION_DDOT = 0

CCSDS_OMM_VERS = 2.0
CREATION_DATE  = 
ORIGINATOR     = 

OBJECT_NAME    = E-KAGAKU-1
OBJECT_ID      = 1998-067XQ
CENTER_NAME    = EARTH
REF_FRAME      = TEME
TIME_SYSTEM    = UTC
MEAN_ELEMENT_THEORY = SGP/SGP4

EPOCH          = 2025-11-12T22:24:04.622976
MEAN_MOTION    = 15.54883301
ECCENTRICITY   = .00044142
INCLINATION    = 51.6325
RA_OF_ASC_NODE = 289.2577
ARG_OF_PERICENTER = 48.7295
MEAN_ANOMALY   = 311.4076

EPHEMERIS_TYPE = 0
CLASSIFICATION_TYPE = U
NORAD_CAT_ID   = 65943
ELEMENT_SET_NO = 999
REV_AT_EPOCH   = 521
BSTAR          = .1276354E-2
MEAN_MOTION_DOT = .87357E-3
MEAN_MOTION_DDOT = 0

CCSDS_OMM_VERS = 2.0
CREATION_DATE  = 
ORIGINATOR     = 

OBJECT_NAME    = HRC MONOBLOCK CAMERA
OBJECT_ID      = 1998-067XR
CENTER_NAME    = EARTH
REF_FRAME      = TEME
TIME_SYSTEM    = UTC
MEAN_ELEMENT_THEORY = SGP/SGP4

EPOCH          = 2025-11-12T22:02:39.704640
MEAN_MOTION    = 15.51551272
ECCENTRICITY   = .00048317
INCLINATION    = 51.6318
RA_OF_ASC_NODE = 289.9051
ARG_OF_PERICENTER = 61.0391
MEAN_ANOMALY   = 299.1082

EPHEMERIS_TYPE = 0
CLASSIFICATION_TYPE = U
NORAD_CAT_ID   = 66052
ELEMENT_SET_NO = 999
REV_AT_EPOCH   = 420
BSTAR          = .83906544E-3
MEAN_MOTION_DOT = .50479E-3
MEAN_MOTION_DDOT = 0

CCSDS_OMM_VERS = 2.0
CREATION_DATE  = 
ORIGINATOR     = 

OBJECT_NAME    = HTV-X1
OBJECT_ID      = 2025-241A
CENTER_NAME    = EARTH
REF_FRAME      = TEME
TIME_SYSTEM    = UTC
MEAN_ELEMENT_THEORY = SGP/SGP4

EPOCH          = 2025-11-12T22:26:21.947136
MEAN_MOTION    = 15.49593679
ECCENTRICITY   = .00041155
INCLINATION    = 51.6332
RA_OF_ASC_NODE = 290.0154
ARG_OF_PERICENTER = 64.1640
MEAN_ANOMALY   = 295.9773

EPHEMERIS_TYPE = 0
CLASSIFICATION_TYPE = U
NORAD_CAT_ID   = 66174
ELEMENT_SET_NO = 999
REV_AT_EPOCH   = 145
BSTAR          = .34559918E-3
MEAN_MOTION_DOT = .19039E-3
MEAN_MOTION_DDOT = 0

