PROGRESS-MS 32          
1 65586U 25204A   25316.93497624  .00019039  00000+0  34560-3 0  9996
2 65586  51.6332 290.0154 0004115  64.1640 295.9773 15.49593679   274
CYGNUS NG-23            
1 65616U 25208A   25316.93497624  .00019039  00000+0  34560-3 0  9994
2 65616  51.6332 290.0154 0004115  64.1640 295.9773 15.49593679   223
DRAGONFLY               
1 65729U 98067XH  25316.95421978  .00159523  00000+0  17238-2 0  9998
2 65729  51.6292 287.1471 0004649 116.8773 243.2697 15.62564101  8497
1998-067XJ              
1 65730U 98067XJ  25316.34089222  .00771762  00000+0  45427-2 0  9991
2 65730  51.6254 288.2854 0011343 102.4924 257.7345 15.75425830  8424
1998-067XK              
1 65731U 98067XK  25316.35521851  .00160060  00000+0  19433-2 0  9993
2 65731  51.6319 290.6486 0005665  91.2035 268.9607 15.59527862  8394
RSP-03                  
1 65732U 98067XL  25316.91160443  .00136439  00000+0  15662-2 0  9995
2 65732  51.6303 287.6135 0006320  94.3835 265.7881 15.61081421  8495
GHS-01                  
1 65733U 98067XM  25316.93979052  .00185374  00000+0  19158-2 0  9998
2 65733  51.6306 287.0530 0005246 114.8359 245.3181 15.63607824  8509
YOTSUBA-KULOVER         
1 65941U 98067XN  25316.93381835  .00087807  00000+0  12828-2 0  9994
2 65941  51.6317 289.2597 0002631  50.7638 309.3586 15.54889681  5210
BOTAN                   
1 65942U 98067XP  25316.34186979  .00174749  00000+0  24082-2 0  9999
2 65942  51.6317 292.0571 0004789  62.0522 298.0954 15.56096331  5126
E-KAGAKU-1              
1 65943U 98067XQ  25316.93338684  .00087357  00000+0  12764-2 0  9999
2 65943  51.6325 289.2577 0004414  48.7295 311.4076 15.54883301  5217
HRC MONOBLOCK CAMERA    
1 66052U 98067XR  25316.91851510  .00050479  00000+0  83907-3 0  9990
2 66052  51.6318 289.9051 0004831  61.0391 299.1082 15.51551272  4206
HTV-X1                  
1 66174U 25241A   25316.93497624  .00019039  00000+0  34560-3 0  9991
2 66174  51.6332 290.0154 0004115  64.1640 295.9773 15.49593679  1459
